{"status":"000","msg":"","zips":[{"city_id":1,"name":"基隆市","zipcode":"1","zip":"全區","primaryKey":"1","primaryKeySet":true},{"city_id":2,"name":"台北市","zipcode":"2","zip":"全區","primaryKey":"2","primaryKeySet":true},{"city_id":3,"name":"新北市","zipcode":"3","zip":"全區","primaryKey":"3","primaryKeySet":true},{"city_id":4,"name":"桃園市","zipcode":"4","zip":"全區","primaryKey":"4","primaryKeySet":true},{"city_id":5,"name":"新竹市","zipcode":"5","zip":"全區","primaryKey":"5","primaryKeySet":true},{"city_id":6,"name":"新竹縣","zipcode":"6","zip":"全區","primaryKey":"6","primaryKeySet":true},{"city_id":7,"name":"苗栗縣","zipcode":"7","zip":"全區","primaryKey":"7","primaryKeySet":true},{"city_id":8,"name":"台中市","zipcode":"8","zip":"全區","primaryKey":"8","primaryKeySet":true},{"city_id":10,"name":"彰化縣","zipcode":"10","zip":"全區","primaryKey":"10","primaryKeySet":true},{"city_id":11,"name":"南投縣","zipcode":"11","zip":"全區","primaryKey":"11","primaryKeySet":true},{"city_id":12,"name":"雲林縣","zipcode":"12","zip":"全區","primaryKey":"12","primaryKeySet":true},{"city_id":13,"name":"嘉義市","zipcode":"13","zip":"全區","primaryKey":"13","primaryKeySet":true},{"city_id":14,"name":"嘉義縣","zipcode":"14","zip":"全區","primaryKey":"14","primaryKeySet":true},{"city_id":15,"name":"台南市","zipcode":"15","zip":"全區","primaryKey":"15","primaryKeySet":true},{"city_id":17,"name":"高雄市","zipcode":"17","zip":"全區","primaryKey":"17","primaryKeySet":true},{"city_id":19,"name":"屏東縣","zipcode":"19","zip":"全區","primaryKey":"19","primaryKeySet":true},{"city_id":20,"name":"台東縣","zipcode":"20","zip":"全區","primaryKey":"20","primaryKeySet":true},{"city_id":21,"name":"花蓮縣","zipcode":"21","zip":"全區","primaryKey":"21","primaryKeySet":true},{"city_id":22,"name":"宜蘭縣","zipcode":"22","zip":"全區","primaryKey":"22","primaryKeySet":true},{"city_id":23,"name":"澎湖縣","zipcode":"23","zip":"全區","primaryKey":"23","primaryKeySet":true},{"city_id":24,"name":"金門縣","zipcode":"24","zip":"全區","primaryKey":"24","primaryKeySet":true},{"city_id":25,"name":"連江縣","zipcode":"25","zip":"全區","primaryKey":"25","primaryKeySet":true},{"city_id":26,"name":"南海諸島","zipcode":"26","zip":"全區","primaryKey":"26","primaryKeySet":true},{"city_id":27,"name":"釣魚台列嶼","zipcode":"27","zip":"全區","primaryKey":"27","primaryKeySet":true},{"city_id":1,"name":"基隆市","zipcode":"200","zip":"仁愛區","primaryKey":"200","primaryKeySet":true},{"city_id":1,"name":"基隆市","zipcode":"201","zip":"信義區","primaryKey":"201","primaryKeySet":true},{"city_id":1,"name":"基隆市","zipcode":"202","zip":"中正區","primaryKey":"202","primaryKeySet":true},{"city_id":1,"name":"基隆市","zipcode":"203","zip":"中山區","primaryKey":"203","primaryKeySet":true},{"city_id":1,"name":"基隆市","zipcode":"204","zip":"安樂區","primaryKey":"204","primaryKeySet":true},{"city_id":1,"name":"基隆市","zipcode":"205","zip":"暖暖區","primaryKey":"205","primaryKeySet":true},{"city_id":1,"name":"基隆市","zipcode":"206","zip":"七堵區","primaryKey":"206","primaryKeySet":true},{"city_id":2,"name":"台北市","zipcode":"100","zip":"中正區","primaryKey":"100","primaryKeySet":true},{"city_id":2,"name":"台北市","zipcode":"103","zip":"大同區","primaryKey":"103","primaryKeySet":true},{"city_id":2,"name":"台北市","zipcode":"104","zip":"中山區","primaryKey":"104","primaryKeySet":true},{"city_id":2,"name":"台北市","zipcode":"105","zip":"松山區","primaryKey":"105","primaryKeySet":true},{"city_id":2,"name":"台北市","zipcode":"106","zip":"大安區","primaryKey":"106","primaryKeySet":true},{"city_id":2,"name":"台北市","zipcode":"108","zip":"萬華區","primaryKey":"108","primaryKeySet":true},{"city_id":2,"name":"台北市","zipcode":"110","zip":"信義區","primaryKey":"110","primaryKeySet":true},{"city_id":2,"name":"台北市","zipcode":"111","zip":"士林區","primaryKey":"111","primaryKeySet":true},{"city_id":2,"name":"台北市","zipcode":"112","zip":"北投區","primaryKey":"112","primaryKeySet":true},{"city_id":2,"name":"台北市","zipcode":"114","zip":"內湖區","primaryKey":"114","primaryKeySet":true},{"city_id":2,"name":"台北市","zipcode":"115","zip":"南港區","primaryKey":"115","primaryKeySet":true},{"city_id":2,"name":"台北市","zipcode":"116","zip":"文山區","primaryKey":"116","primaryKeySet":true},{"city_id":3,"name":"新北市","zipcode":"207","zip":"萬里","primaryKey":"207","primaryKeySet":true},{"city_id":3,"name":"新北市","zipcode":"208","zip":"金山","primaryKey":"208","primaryKeySet":true},{"city_id":3,"name":"新北市","zipcode":"220","zip":"板橋","primaryKey":"220","primaryKeySet":true},{"city_id":3,"name":"新北市","zipcode":"221","zip":"汐止","primaryKey":"221","primaryKeySet":true},{"city_id":3,"name":"新北市","zipcode":"222","zip":"深坑","primaryKey":"222","primaryKeySet":true},{"city_id":3,"name":"新北市","zipcode":"223","zip":"石碇","primaryKey":"223","primaryKeySet":true},{"city_id":3,"name":"新北市","zipcode":"224","zip":"瑞芳","primaryKey":"224","primaryKeySet":true},{"city_id":3,"name":"新北市","zipcode":"226","zip":"平溪","primaryKey":"226","primaryKeySet":true},{"city_id":3,"name":"新北市","zipcode":"227","zip":"雙溪","primaryKey":"227","primaryKeySet":true},{"city_id":3,"name":"新北市","zipcode":"228","zip":"貢寮","primaryKey":"228","primaryKeySet":true},{"city_id":3,"name":"新北市","zipcode":"231","zip":"新店","primaryKey":"231","primaryKeySet":true},{"city_id":3,"name":"新北市","zipcode":"232","zip":"坪林","primaryKey":"232","primaryKeySet":true},{"city_id":3,"name":"新北市","zipcode":"233","zip":"烏來","primaryKey":"233","primaryKeySet":true},{"city_id":3,"name":"新北市","zipcode":"234","zip":"永和","primaryKey":"234","primaryKeySet":true},{"city_id":3,"name":"新北市","zipcode":"235","zip":"中和","primaryKey":"235","primaryKeySet":true},{"city_id":3,"name":"新北市","zipcode":"236","zip":"土城","primaryKey":"236","primaryKeySet":true},{"city_id":3,"name":"新北市","zipcode":"237","zip":"三峽","primaryKey":"237","primaryKeySet":true},{"city_id":3,"name":"新北市","zipcode":"238","zip":"樹林","primaryKey":"238","primaryKeySet":true},{"city_id":3,"name":"新北市","zipcode":"239","zip":"鶯歌","primaryKey":"239","primaryKeySet":true},{"city_id":3,"name":"新北市","zipcode":"241","zip":"三重","primaryKey":"241","primaryKeySet":true},{"city_id":3,"name":"新北市","zipcode":"242","zip":"新莊","primaryKey":"242","primaryKeySet":true},{"city_id":3,"name":"新北市","zipcode":"243","zip":"泰山","primaryKey":"243","primaryKeySet":true},{"city_id":3,"name":"新北市","zipcode":"244","zip":"林口","primaryKey":"244","primaryKeySet":true},{"city_id":3,"name":"新北市","zipcode":"247","zip":"蘆洲","primaryKey":"247","primaryKeySet":true},{"city_id":3,"name":"新北市","zipcode":"248","zip":"五股","primaryKey":"248","primaryKeySet":true},{"city_id":3,"name":"新北市","zipcode":"249","zip":"八里","primaryKey":"249","primaryKeySet":true},{"city_id":3,"name":"新北市","zipcode":"251","zip":"淡水","primaryKey":"251","primaryKeySet":true},{"city_id":3,"name":"新北市","zipcode":"252","zip":"三芝","primaryKey":"252","primaryKeySet":true},{"city_id":3,"name":"新北市","zipcode":"253","zip":"石門","primaryKey":"253","primaryKeySet":true},{"city_id":4,"name":"桃園市","zipcode":"320","zip":"中壢","primaryKey":"320","primaryKeySet":true},{"city_id":4,"name":"桃園市","zipcode":"324","zip":"平鎮","primaryKey":"324","primaryKeySet":true},{"city_id":4,"name":"桃園市","zipcode":"325","zip":"龍潭","primaryKey":"325","primaryKeySet":true},{"city_id":4,"name":"桃園市","zipcode":"326","zip":"楊梅","primaryKey":"326","primaryKeySet":true},{"city_id":4,"name":"桃園市","zipcode":"327","zip":"新屋","primaryKey":"327","primaryKeySet":true},{"city_id":4,"name":"桃園市","zipcode":"328","zip":"觀音","primaryKey":"328","primaryKeySet":true},{"city_id":4,"name":"桃園市","zipcode":"330","zip":"桃園","primaryKey":"330","primaryKeySet":true},{"city_id":4,"name":"桃園市","zipcode":"333","zip":"龜山","primaryKey":"333","primaryKeySet":true},{"city_id":4,"name":"桃園市","zipcode":"334","zip":"八德","primaryKey":"334","primaryKeySet":true},{"city_id":4,"name":"桃園市","zipcode":"335","zip":"大溪","primaryKey":"335","primaryKeySet":true},{"city_id":4,"name":"桃園市","zipcode":"336","zip":"復興","primaryKey":"336","primaryKeySet":true},{"city_id":4,"name":"桃園市","zipcode":"337","zip":"大園","primaryKey":"337","primaryKeySet":true},{"city_id":4,"name":"桃園市","zipcode":"338","zip":"蘆竹","primaryKey":"338","primaryKeySet":true},{"city_id":5,"name":"新竹市","zipcode":"300","zip":"新竹","primaryKey":"300","primaryKeySet":true},{"city_id":6,"name":"新竹縣","zipcode":"302","zip":"竹北","primaryKey":"302","primaryKeySet":true},{"city_id":6,"name":"新竹縣","zipcode":"303","zip":"湖口","primaryKey":"303","primaryKeySet":true},{"city_id":6,"name":"新竹縣","zipcode":"304","zip":"新豐","primaryKey":"304","primaryKeySet":true},{"city_id":6,"name":"新竹縣","zipcode":"305","zip":"新埔","primaryKey":"305","primaryKeySet":true},{"city_id":6,"name":"新竹縣","zipcode":"306","zip":"關西","primaryKey":"306","primaryKeySet":true},{"city_id":6,"name":"新竹縣","zipcode":"307","zip":"芎林","primaryKey":"307","primaryKeySet":true},{"city_id":6,"name":"新竹縣","zipcode":"308","zip":"寶山","primaryKey":"308","primaryKeySet":true},{"city_id":6,"name":"新竹縣","zipcode":"310","zip":"竹東","primaryKey":"310","primaryKeySet":true},{"city_id":6,"name":"新竹縣","zipcode":"311","zip":"五峰","primaryKey":"311","primaryKeySet":true},{"city_id":6,"name":"新竹縣","zipcode":"312","zip":"橫山","primaryKey":"312","primaryKeySet":true},{"city_id":6,"name":"新竹縣","zipcode":"313","zip":"尖石","primaryKey":"313","primaryKeySet":true},{"city_id":6,"name":"新竹縣","zipcode":"314","zip":"北埔","primaryKey":"314","primaryKeySet":true},{"city_id":6,"name":"新竹縣","zipcode":"315","zip":"峨眉","primaryKey":"315","primaryKeySet":true},{"city_id":7,"name":"苗栗縣","zipcode":"350","zip":"竹南","primaryKey":"350","primaryKeySet":true},{"city_id":7,"name":"苗栗縣","zipcode":"351","zip":"頭份","primaryKey":"351","primaryKeySet":true},{"city_id":7,"name":"苗栗縣","zipcode":"352","zip":"三灣","primaryKey":"352","primaryKeySet":true},{"city_id":7,"name":"苗栗縣","zipcode":"353","zip":"南庄","primaryKey":"353","primaryKeySet":true},{"city_id":7,"name":"苗栗縣","zipcode":"354","zip":"獅潭","primaryKey":"354","primaryKeySet":true},{"city_id":7,"name":"苗栗縣","zipcode":"356","zip":"後龍","primaryKey":"356","primaryKeySet":true},{"city_id":7,"name":"苗栗縣","zipcode":"357","zip":"通霄","primaryKey":"357","primaryKeySet":true},{"city_id":7,"name":"苗栗縣","zipcode":"358","zip":"苑裡","primaryKey":"358","primaryKeySet":true},{"city_id":7,"name":"苗栗縣","zipcode":"360","zip":"苗栗","primaryKey":"360","primaryKeySet":true},{"city_id":7,"name":"苗栗縣","zipcode":"361","zip":"造橋","primaryKey":"361","primaryKeySet":true},{"city_id":7,"name":"苗栗縣","zipcode":"362","zip":"頭屋","primaryKey":"362","primaryKeySet":true},{"city_id":7,"name":"苗栗縣","zipcode":"363","zip":"公館","primaryKey":"363","primaryKeySet":true},{"city_id":7,"name":"苗栗縣","zipcode":"364","zip":"大湖","primaryKey":"364","primaryKeySet":true},{"city_id":7,"name":"苗栗縣","zipcode":"365","zip":"泰安","primaryKey":"365","primaryKeySet":true},{"city_id":7,"name":"苗栗縣","zipcode":"366","zip":"銅鑼","primaryKey":"366","primaryKeySet":true},{"city_id":7,"name":"苗栗縣","zipcode":"367","zip":"三義","primaryKey":"367","primaryKeySet":true},{"city_id":7,"name":"苗栗縣","zipcode":"368","zip":"西湖","primaryKey":"368","primaryKeySet":true},{"city_id":7,"name":"苗栗縣","zipcode":"369","zip":"卓蘭","primaryKey":"369","primaryKeySet":true},{"city_id":8,"name":"台中市","zipcode":"400","zip":"中區","primaryKey":"400","primaryKeySet":true},{"city_id":8,"name":"台中市","zipcode":"401","zip":"東區","primaryKey":"401","primaryKeySet":true},{"city_id":8,"name":"台中市","zipcode":"402","zip":"南區","primaryKey":"402","primaryKeySet":true},{"city_id":8,"name":"台中市","zipcode":"403","zip":"西區","primaryKey":"403","primaryKeySet":true},{"city_id":8,"name":"台中市","zipcode":"404","zip":"北區","primaryKey":"404","primaryKeySet":true},{"city_id":8,"name":"台中市","zipcode":"406","zip":"北屯區","primaryKey":"406","primaryKeySet":true},{"city_id":8,"name":"台中市","zipcode":"407","zip":"西屯區","primaryKey":"407","primaryKeySet":true},{"city_id":8,"name":"台中市","zipcode":"408","zip":"南屯區","primaryKey":"408","primaryKeySet":true},{"city_id":8,"name":"台中市","zipcode":"411","zip":"太平","primaryKey":"411","primaryKeySet":true},{"city_id":8,"name":"台中市","zipcode":"412","zip":"大里","primaryKey":"412","primaryKeySet":true},{"city_id":8,"name":"台中市","zipcode":"413","zip":"霧峰","primaryKey":"413","primaryKeySet":true},{"city_id":8,"name":"台中市","zipcode":"414","zip":"烏日","primaryKey":"414","primaryKeySet":true},{"city_id":8,"name":"台中市","zipcode":"420","zip":"豐原","primaryKey":"420","primaryKeySet":true},{"city_id":8,"name":"台中市","zipcode":"421","zip":"后里","primaryKey":"421","primaryKeySet":true},{"city_id":8,"name":"台中市","zipcode":"422","zip":"石岡","primaryKey":"422","primaryKeySet":true},{"city_id":8,"name":"台中市","zipcode":"423","zip":"東勢","primaryKey":"423","primaryKeySet":true},{"city_id":8,"name":"台中市","zipcode":"424","zip":"和平","primaryKey":"424","primaryKeySet":true},{"city_id":8,"name":"台中市","zipcode":"426","zip":"新社","primaryKey":"426","primaryKeySet":true},{"city_id":8,"name":"台中市","zipcode":"427","zip":"潭子","primaryKey":"427","primaryKeySet":true},{"city_id":8,"name":"台中市","zipcode":"428","zip":"大雅","primaryKey":"428","primaryKeySet":true},{"city_id":8,"name":"台中市","zipcode":"429","zip":"神岡","primaryKey":"429","primaryKeySet":true},{"city_id":8,"name":"台中市","zipcode":"432","zip":"大肚","primaryKey":"432","primaryKeySet":true},{"city_id":8,"name":"台中市","zipcode":"433","zip":"沙鹿","primaryKey":"433","primaryKeySet":true},{"city_id":8,"name":"台中市","zipcode":"434","zip":"龍井","primaryKey":"434","primaryKeySet":true},{"city_id":8,"name":"台中市","zipcode":"435","zip":"梧棲","primaryKey":"435","primaryKeySet":true},{"city_id":8,"name":"台中市","zipcode":"436","zip":"清水","primaryKey":"436","primaryKeySet":true},{"city_id":8,"name":"台中市","zipcode":"437","zip":"大甲","primaryKey":"437","primaryKeySet":true},{"city_id":8,"name":"台中市","zipcode":"438","zip":"外埔","primaryKey":"438","primaryKeySet":true},{"city_id":8,"name":"台中市","zipcode":"439","zip":"大安","primaryKey":"439","primaryKeySet":true},{"city_id":10,"name":"彰化縣","zipcode":"500","zip":"彰化","primaryKey":"500","primaryKeySet":true},{"city_id":10,"name":"彰化縣","zipcode":"502","zip":"芬園","primaryKey":"502","primaryKeySet":true},{"city_id":10,"name":"彰化縣","zipcode":"503","zip":"花壇","primaryKey":"503","primaryKeySet":true},{"city_id":10,"name":"彰化縣","zipcode":"504","zip":"秀水","primaryKey":"504","primaryKeySet":true},{"city_id":10,"name":"彰化縣","zipcode":"505","zip":"鹿港","primaryKey":"505","primaryKeySet":true},{"city_id":10,"name":"彰化縣","zipcode":"506","zip":"福興","primaryKey":"506","primaryKeySet":true},{"city_id":10,"name":"彰化縣","zipcode":"507","zip":"線西","primaryKey":"507","primaryKeySet":true},{"city_id":10,"name":"彰化縣","zipcode":"508","zip":"和美","primaryKey":"508","primaryKeySet":true},{"city_id":10,"name":"彰化縣","zipcode":"509","zip":"伸港","primaryKey":"509","primaryKeySet":true},{"city_id":10,"name":"彰化縣","zipcode":"510","zip":"員林","primaryKey":"510","primaryKeySet":true},{"city_id":10,"name":"彰化縣","zipcode":"511","zip":"社頭","primaryKey":"511","primaryKeySet":true},{"city_id":10,"name":"彰化縣","zipcode":"512","zip":"永靖","primaryKey":"512","primaryKeySet":true},{"city_id":10,"name":"彰化縣","zipcode":"513","zip":"埔心","primaryKey":"513","primaryKeySet":true},{"city_id":10,"name":"彰化縣","zipcode":"514","zip":"溪湖","primaryKey":"514","primaryKeySet":true},{"city_id":10,"name":"彰化縣","zipcode":"515","zip":"大村","primaryKey":"515","primaryKeySet":true},{"city_id":10,"name":"彰化縣","zipcode":"516","zip":"埔鹽","primaryKey":"516","primaryKeySet":true},{"city_id":10,"name":"彰化縣","zipcode":"520","zip":"田中","primaryKey":"520","primaryKeySet":true},{"city_id":10,"name":"彰化縣","zipcode":"521","zip":"北斗","primaryKey":"521","primaryKeySet":true},{"city_id":10,"name":"彰化縣","zipcode":"522","zip":"田尾","primaryKey":"522","primaryKeySet":true},{"city_id":10,"name":"彰化縣","zipcode":"523","zip":"埤頭","primaryKey":"523","primaryKeySet":true},{"city_id":10,"name":"彰化縣","zipcode":"524","zip":"溪州","primaryKey":"524","primaryKeySet":true},{"city_id":10,"name":"彰化縣","zipcode":"525","zip":"竹塘","primaryKey":"525","primaryKeySet":true},{"city_id":10,"name":"彰化縣","zipcode":"526","zip":"二林","primaryKey":"526","primaryKeySet":true},{"city_id":10,"name":"彰化縣","zipcode":"527","zip":"大城","primaryKey":"527","primaryKeySet":true},{"city_id":10,"name":"彰化縣","zipcode":"528","zip":"芳苑","primaryKey":"528","primaryKeySet":true},{"city_id":10,"name":"彰化縣","zipcode":"530","zip":"二水","primaryKey":"530","primaryKeySet":true},{"city_id":11,"name":"南投縣","zipcode":"540","zip":"南投","primaryKey":"540","primaryKeySet":true},{"city_id":11,"name":"南投縣","zipcode":"541","zip":"中寮","primaryKey":"541","primaryKeySet":true},{"city_id":11,"name":"南投縣","zipcode":"542","zip":"草屯","primaryKey":"542","primaryKeySet":true},{"city_id":11,"name":"南投縣","zipcode":"544","zip":"國姓","primaryKey":"544","primaryKeySet":true},{"city_id":11,"name":"南投縣","zipcode":"545","zip":"埔里","primaryKey":"545","primaryKeySet":true},{"city_id":11,"name":"南投縣","zipcode":"546","zip":"仁愛","primaryKey":"546","primaryKeySet":true},{"city_id":11,"name":"南投縣","zipcode":"551","zip":"名間","primaryKey":"551","primaryKeySet":true},{"city_id":11,"name":"南投縣","zipcode":"552","zip":"集集","primaryKey":"552","primaryKeySet":true},{"city_id":11,"name":"南投縣","zipcode":"553","zip":"水里","primaryKey":"553","primaryKeySet":true},{"city_id":11,"name":"南投縣","zipcode":"555","zip":"魚池","primaryKey":"555","primaryKeySet":true},{"city_id":11,"name":"南投縣","zipcode":"556","zip":"信義","primaryKey":"556","primaryKeySet":true},{"city_id":11,"name":"南投縣","zipcode":"557","zip":"竹山","primaryKey":"557","primaryKeySet":true},{"city_id":11,"name":"南投縣","zipcode":"558","zip":"鹿谷","primaryKey":"558","primaryKeySet":true},{"city_id":12,"name":"雲林縣","zipcode":"630","zip":"斗南","primaryKey":"630","primaryKeySet":true},{"city_id":12,"name":"雲林縣","zipcode":"631","zip":"大埤","primaryKey":"631","primaryKeySet":true},{"city_id":12,"name":"雲林縣","zipcode":"632","zip":"虎尾","primaryKey":"632","primaryKeySet":true},{"city_id":12,"name":"雲林縣","zipcode":"633","zip":"土庫","primaryKey":"633","primaryKeySet":true},{"city_id":12,"name":"雲林縣","zipcode":"634","zip":"褒忠","primaryKey":"634","primaryKeySet":true},{"city_id":12,"name":"雲林縣","zipcode":"635","zip":"東勢","primaryKey":"635","primaryKeySet":true},{"city_id":12,"name":"雲林縣","zipcode":"636","zip":"臺西","primaryKey":"636","primaryKeySet":true},{"city_id":12,"name":"雲林縣","zipcode":"637","zip":"崙背","primaryKey":"637","primaryKeySet":true},{"city_id":12,"name":"雲林縣","zipcode":"638","zip":"麥寮","primaryKey":"638","primaryKeySet":true},{"city_id":12,"name":"雲林縣","zipcode":"640","zip":"斗六","primaryKey":"640","primaryKeySet":true},{"city_id":12,"name":"雲林縣","zipcode":"643","zip":"林內","primaryKey":"643","primaryKeySet":true},{"city_id":12,"name":"雲林縣","zipcode":"646","zip":"古坑","primaryKey":"646","primaryKeySet":true},{"city_id":12,"name":"雲林縣","zipcode":"647","zip":"莿桐","primaryKey":"647","primaryKeySet":true},{"city_id":12,"name":"雲林縣","zipcode":"648","zip":"西螺","primaryKey":"648","primaryKeySet":true},{"city_id":12,"name":"雲林縣","zipcode":"649","zip":"二崙","primaryKey":"649","primaryKeySet":true},{"city_id":12,"name":"雲林縣","zipcode":"651","zip":"北港","primaryKey":"651","primaryKeySet":true},{"city_id":12,"name":"雲林縣","zipcode":"652","zip":"水林","primaryKey":"652","primaryKeySet":true},{"city_id":12,"name":"雲林縣","zipcode":"653","zip":"口湖","primaryKey":"653","primaryKeySet":true},{"city_id":12,"name":"雲林縣","zipcode":"654","zip":"四湖","primaryKey":"654","primaryKeySet":true},{"city_id":12,"name":"雲林縣","zipcode":"655","zip":"元長","primaryKey":"655","primaryKeySet":true},{"city_id":13,"name":"嘉義市","zipcode":"600","zip":"嘉義市","primaryKey":"600","primaryKeySet":true},{"city_id":14,"name":"嘉義縣","zipcode":"602","zip":"番路","primaryKey":"602","primaryKeySet":true},{"city_id":14,"name":"嘉義縣","zipcode":"603","zip":"梅山","primaryKey":"603","primaryKeySet":true},{"city_id":14,"name":"嘉義縣","zipcode":"604","zip":"竹崎","primaryKey":"604","primaryKeySet":true},{"city_id":14,"name":"嘉義縣","zipcode":"605","zip":"阿里山","primaryKey":"605","primaryKeySet":true},{"city_id":14,"name":"嘉義縣","zipcode":"606","zip":"中埔","primaryKey":"606","primaryKeySet":true},{"city_id":14,"name":"嘉義縣","zipcode":"607","zip":"大埔","primaryKey":"607","primaryKeySet":true},{"city_id":14,"name":"嘉義縣","zipcode":"608","zip":"水上","primaryKey":"608","primaryKeySet":true},{"city_id":14,"name":"嘉義縣","zipcode":"611","zip":"鹿草","primaryKey":"611","primaryKeySet":true},{"city_id":14,"name":"嘉義縣","zipcode":"612","zip":"太保","primaryKey":"612","primaryKeySet":true},{"city_id":14,"name":"嘉義縣","zipcode":"613","zip":"朴子","primaryKey":"613","primaryKeySet":true},{"city_id":14,"name":"嘉義縣","zipcode":"614","zip":"東石","primaryKey":"614","primaryKeySet":true},{"city_id":14,"name":"嘉義縣","zipcode":"615","zip":"六腳","primaryKey":"615","primaryKeySet":true},{"city_id":14,"name":"嘉義縣","zipcode":"616","zip":"新港","primaryKey":"616","primaryKeySet":true},{"city_id":14,"name":"嘉義縣","zipcode":"621","zip":"民雄","primaryKey":"621","primaryKeySet":true},{"city_id":14,"name":"嘉義縣","zipcode":"622","zip":"大林","primaryKey":"622","primaryKeySet":true},{"city_id":14,"name":"嘉義縣","zipcode":"623","zip":"溪口","primaryKey":"623","primaryKeySet":true},{"city_id":14,"name":"嘉義縣","zipcode":"624","zip":"義竹","primaryKey":"624","primaryKeySet":true},{"city_id":14,"name":"嘉義縣","zipcode":"625","zip":"布袋","primaryKey":"625","primaryKeySet":true},{"city_id":15,"name":"台南市","zipcode":"700","zip":"中西區","primaryKey":"700","primaryKeySet":true},{"city_id":15,"name":"台南市","zipcode":"701","zip":"東區","primaryKey":"701","primaryKeySet":true},{"city_id":15,"name":"台南市","zipcode":"702","zip":"南區","primaryKey":"702","primaryKeySet":true},{"city_id":15,"name":"台南市","zipcode":"704","zip":"北區","primaryKey":"704","primaryKeySet":true},{"city_id":15,"name":"台南市","zipcode":"708","zip":"安平區","primaryKey":"708","primaryKeySet":true},{"city_id":15,"name":"台南市","zipcode":"709","zip":"安南區","primaryKey":"709","primaryKeySet":true},{"city_id":15,"name":"台南市","zipcode":"710","zip":"永康","primaryKey":"710","primaryKeySet":true},{"city_id":15,"name":"台南市","zipcode":"711","zip":"歸仁","primaryKey":"711","primaryKeySet":true},{"city_id":15,"name":"台南市","zipcode":"712","zip":"新化","primaryKey":"712","primaryKeySet":true},{"city_id":15,"name":"台南市","zipcode":"713","zip":"左鎮","primaryKey":"713","primaryKeySet":true},{"city_id":15,"name":"台南市","zipcode":"714","zip":"玉井","primaryKey":"714","primaryKeySet":true},{"city_id":15,"name":"台南市","zipcode":"715","zip":"楠西","primaryKey":"715","primaryKeySet":true},{"city_id":15,"name":"台南市","zipcode":"716","zip":"南化","primaryKey":"716","primaryKeySet":true},{"city_id":15,"name":"台南市","zipcode":"717","zip":"仁德","primaryKey":"717","primaryKeySet":true},{"city_id":15,"name":"台南市","zipcode":"718","zip":"關廟","primaryKey":"718","primaryKeySet":true},{"city_id":15,"name":"台南市","zipcode":"719","zip":"龍崎","primaryKey":"719","primaryKeySet":true},{"city_id":15,"name":"台南市","zipcode":"720","zip":"官田","primaryKey":"720","primaryKeySet":true},{"city_id":15,"name":"台南市","zipcode":"721","zip":"麻豆","primaryKey":"721","primaryKeySet":true},{"city_id":15,"name":"台南市","zipcode":"722","zip":"佳里","primaryKey":"722","primaryKeySet":true},{"city_id":15,"name":"台南市","zipcode":"723","zip":"西港","primaryKey":"723","primaryKeySet":true},{"city_id":15,"name":"台南市","zipcode":"724","zip":"七股","primaryKey":"724","primaryKeySet":true},{"city_id":15,"name":"台南市","zipcode":"725","zip":"將軍","primaryKey":"725","primaryKeySet":true},{"city_id":15,"name":"台南市","zipcode":"726","zip":"學甲","primaryKey":"726","primaryKeySet":true},{"city_id":15,"name":"台南市","zipcode":"727","zip":"北門","primaryKey":"727","primaryKeySet":true},{"city_id":15,"name":"台南市","zipcode":"730","zip":"新營","primaryKey":"730","primaryKeySet":true},{"city_id":15,"name":"台南市","zipcode":"731","zip":"後壁","primaryKey":"731","primaryKeySet":true},{"city_id":15,"name":"台南市","zipcode":"732","zip":"白河","primaryKey":"732","primaryKeySet":true},{"city_id":15,"name":"台南市","zipcode":"733","zip":"東山","primaryKey":"733","primaryKeySet":true},{"city_id":15,"name":"台南市","zipcode":"734","zip":"六甲","primaryKey":"734","primaryKeySet":true},{"city_id":15,"name":"台南市","zipcode":"735","zip":"下營","primaryKey":"735","primaryKeySet":true},{"city_id":15,"name":"台南市","zipcode":"736","zip":"柳營","primaryKey":"736","primaryKeySet":true},{"city_id":15,"name":"台南市","zipcode":"737","zip":"鹽水","primaryKey":"737","primaryKeySet":true},{"city_id":15,"name":"台南市","zipcode":"741","zip":"善化","primaryKey":"741","primaryKeySet":true},{"city_id":15,"name":"台南市","zipcode":"742","zip":"大內","primaryKey":"742","primaryKeySet":true},{"city_id":15,"name":"台南市","zipcode":"743","zip":"山上","primaryKey":"743","primaryKeySet":true},{"city_id":15,"name":"台南市","zipcode":"744","zip":"新市","primaryKey":"744","primaryKeySet":true},{"city_id":15,"name":"台南市","zipcode":"745","zip":"安定","primaryKey":"745","primaryKeySet":true},{"city_id":17,"name":"高雄市","zipcode":"800","zip":"新興區","primaryKey":"800","primaryKeySet":true},{"city_id":17,"name":"高雄市","zipcode":"801","zip":"前金區","primaryKey":"801","primaryKeySet":true},{"city_id":17,"name":"高雄市","zipcode":"802","zip":"苓雅區","primaryKey":"802","primaryKeySet":true},{"city_id":17,"name":"高雄市","zipcode":"803","zip":"鹽埕區","primaryKey":"803","primaryKeySet":true},{"city_id":17,"name":"高雄市","zipcode":"804","zip":"鼓山區","primaryKey":"804","primaryKeySet":true},{"city_id":17,"name":"高雄市","zipcode":"805","zip":"旗津區","primaryKey":"805","primaryKeySet":true},{"city_id":17,"name":"高雄市","zipcode":"806","zip":"前鎮區","primaryKey":"806","primaryKeySet":true},{"city_id":17,"name":"高雄市","zipcode":"807","zip":"三民區","primaryKey":"807","primaryKeySet":true},{"city_id":17,"name":"高雄市","zipcode":"811","zip":"楠梓區","primaryKey":"811","primaryKeySet":true},{"city_id":17,"name":"高雄市","zipcode":"812","zip":"小港區","primaryKey":"812","primaryKeySet":true},{"city_id":17,"name":"高雄市","zipcode":"813","zip":"左營區","primaryKey":"813","primaryKeySet":true},{"city_id":17,"name":"高雄市","zipcode":"814","zip":"仁武","primaryKey":"814","primaryKeySet":true},{"city_id":17,"name":"高雄市","zipcode":"815","zip":"大社","primaryKey":"815","primaryKeySet":true},{"city_id":17,"name":"高雄市","zipcode":"820","zip":"岡山","primaryKey":"820","primaryKeySet":true},{"city_id":17,"name":"高雄市","zipcode":"821","zip":"路竹","primaryKey":"821","primaryKeySet":true},{"city_id":17,"name":"高雄市","zipcode":"822","zip":"阿蓮","primaryKey":"822","primaryKeySet":true},{"city_id":17,"name":"高雄市","zipcode":"823","zip":"田寮","primaryKey":"823","primaryKeySet":true},{"city_id":17,"name":"高雄市","zipcode":"824","zip":"燕巢","primaryKey":"824","primaryKeySet":true},{"city_id":17,"name":"高雄市","zipcode":"825","zip":"橋頭","primaryKey":"825","primaryKeySet":true},{"city_id":17,"name":"高雄市","zipcode":"826","zip":"梓官","primaryKey":"826","primaryKeySet":true},{"city_id":17,"name":"高雄市","zipcode":"827","zip":"彌陀","primaryKey":"827","primaryKeySet":true},{"city_id":17,"name":"高雄市","zipcode":"828","zip":"永安","primaryKey":"828","primaryKeySet":true},{"city_id":17,"name":"高雄市","zipcode":"829","zip":"湖內","primaryKey":"829","primaryKeySet":true},{"city_id":17,"name":"高雄市","zipcode":"830","zip":"鳳山","primaryKey":"830","primaryKeySet":true},{"city_id":17,"name":"高雄市","zipcode":"831","zip":"大寮","primaryKey":"831","primaryKeySet":true},{"city_id":17,"name":"高雄市","zipcode":"832","zip":"林園","primaryKey":"832","primaryKeySet":true},{"city_id":17,"name":"高雄市","zipcode":"833","zip":"鳥松","primaryKey":"833","primaryKeySet":true},{"city_id":17,"name":"高雄市","zipcode":"840","zip":"大樹","primaryKey":"840","primaryKeySet":true},{"city_id":17,"name":"高雄市","zipcode":"842","zip":"旗山","primaryKey":"842","primaryKeySet":true},{"city_id":17,"name":"高雄市","zipcode":"843","zip":"美濃","primaryKey":"843","primaryKeySet":true},{"city_id":17,"name":"高雄市","zipcode":"844","zip":"六龜","primaryKey":"844","primaryKeySet":true},{"city_id":17,"name":"高雄市","zipcode":"845","zip":"內門","primaryKey":"845","primaryKeySet":true},{"city_id":17,"name":"高雄市","zipcode":"846","zip":"杉林","primaryKey":"846","primaryKeySet":true},{"city_id":17,"name":"高雄市","zipcode":"847","zip":"甲仙","primaryKey":"847","primaryKeySet":true},{"city_id":17,"name":"高雄市","zipcode":"848","zip":"桃源","primaryKey":"848","primaryKeySet":true},{"city_id":17,"name":"高雄市","zipcode":"849","zip":"三民","primaryKey":"849","primaryKeySet":true},{"city_id":17,"name":"高雄市","zipcode":"851","zip":"茂林","primaryKey":"851","primaryKeySet":true},{"city_id":17,"name":"高雄市","zipcode":"852","zip":"茄萣","primaryKey":"852","primaryKeySet":true},{"city_id":19,"name":"屏東縣","zipcode":"900","zip":"屏東","primaryKey":"900","primaryKeySet":true},{"city_id":19,"name":"屏東縣","zipcode":"901","zip":"三地門","primaryKey":"901","primaryKeySet":true},{"city_id":19,"name":"屏東縣","zipcode":"902","zip":"霧臺","primaryKey":"902","primaryKeySet":true},{"city_id":19,"name":"屏東縣","zipcode":"903","zip":"瑪家","primaryKey":"903","primaryKeySet":true},{"city_id":19,"name":"屏東縣","zipcode":"904","zip":"九如","primaryKey":"904","primaryKeySet":true},{"city_id":19,"name":"屏東縣","zipcode":"905","zip":"里港","primaryKey":"905","primaryKeySet":true},{"city_id":19,"name":"屏東縣","zipcode":"906","zip":"高樹","primaryKey":"906","primaryKeySet":true},{"city_id":19,"name":"屏東縣","zipcode":"907","zip":"盬埔","primaryKey":"907","primaryKeySet":true},{"city_id":19,"name":"屏東縣","zipcode":"908","zip":"長治","primaryKey":"908","primaryKeySet":true},{"city_id":19,"name":"屏東縣","zipcode":"909","zip":"麟洛","primaryKey":"909","primaryKeySet":true},{"city_id":19,"name":"屏東縣","zipcode":"911","zip":"竹田","primaryKey":"911","primaryKeySet":true},{"city_id":19,"name":"屏東縣","zipcode":"912","zip":"內埔","primaryKey":"912","primaryKeySet":true},{"city_id":19,"name":"屏東縣","zipcode":"913","zip":"萬丹","primaryKey":"913","primaryKeySet":true},{"city_id":19,"name":"屏東縣","zipcode":"920","zip":"潮州","primaryKey":"920","primaryKeySet":true},{"city_id":19,"name":"屏東縣","zipcode":"921","zip":"泰武","primaryKey":"921","primaryKeySet":true},{"city_id":19,"name":"屏東縣","zipcode":"922","zip":"來義","primaryKey":"922","primaryKeySet":true},{"city_id":19,"name":"屏東縣","zipcode":"923","zip":"萬巒","primaryKey":"923","primaryKeySet":true},{"city_id":19,"name":"屏東縣","zipcode":"924","zip":"崁頂","primaryKey":"924","primaryKeySet":true},{"city_id":19,"name":"屏東縣","zipcode":"925","zip":"新埤","primaryKey":"925","primaryKeySet":true},{"city_id":19,"name":"屏東縣","zipcode":"926","zip":"南州","primaryKey":"926","primaryKeySet":true},{"city_id":19,"name":"屏東縣","zipcode":"927","zip":"林邊","primaryKey":"927","primaryKeySet":true},{"city_id":19,"name":"屏東縣","zipcode":"928","zip":"東港","primaryKey":"928","primaryKeySet":true},{"city_id":19,"name":"屏東縣","zipcode":"929","zip":"琉球","primaryKey":"929","primaryKeySet":true},{"city_id":19,"name":"屏東縣","zipcode":"931","zip":"佳冬","primaryKey":"931","primaryKeySet":true},{"city_id":19,"name":"屏東縣","zipcode":"932","zip":"新園","primaryKey":"932","primaryKeySet":true},{"city_id":19,"name":"屏東縣","zipcode":"940","zip":"枋寮","primaryKey":"940","primaryKeySet":true},{"city_id":19,"name":"屏東縣","zipcode":"941","zip":"枋山","primaryKey":"941","primaryKeySet":true},{"city_id":19,"name":"屏東縣","zipcode":"942","zip":"春日","primaryKey":"942","primaryKeySet":true},{"city_id":19,"name":"屏東縣","zipcode":"943","zip":"獅子","primaryKey":"943","primaryKeySet":true},{"city_id":19,"name":"屏東縣","zipcode":"944","zip":"車城","primaryKey":"944","primaryKeySet":true},{"city_id":19,"name":"屏東縣","zipcode":"945","zip":"牡丹","primaryKey":"945","primaryKeySet":true},{"city_id":19,"name":"屏東縣","zipcode":"946","zip":"恆春","primaryKey":"946","primaryKeySet":true},{"city_id":19,"name":"屏東縣","zipcode":"947","zip":"滿州","primaryKey":"947","primaryKeySet":true},{"city_id":20,"name":"台東縣","zipcode":"950","zip":"臺東","primaryKey":"950","primaryKeySet":true},{"city_id":20,"name":"台東縣","zipcode":"951","zip":"綠島","primaryKey":"951","primaryKeySet":true},{"city_id":20,"name":"台東縣","zipcode":"952","zip":"蘭嶼","primaryKey":"952","primaryKeySet":true},{"city_id":20,"name":"台東縣","zipcode":"953","zip":"延平","primaryKey":"953","primaryKeySet":true},{"city_id":20,"name":"台東縣","zipcode":"954","zip":"卑南","primaryKey":"954","primaryKeySet":true},{"city_id":20,"name":"台東縣","zipcode":"955","zip":"鹿野","primaryKey":"955","primaryKeySet":true},{"city_id":20,"name":"台東縣","zipcode":"956","zip":"關山","primaryKey":"956","primaryKeySet":true},{"city_id":20,"name":"台東縣","zipcode":"957","zip":"海端","primaryKey":"957","primaryKeySet":true},{"city_id":20,"name":"台東縣","zipcode":"958","zip":"池上","primaryKey":"958","primaryKeySet":true},{"city_id":20,"name":"台東縣","zipcode":"959","zip":"東河","primaryKey":"959","primaryKeySet":true},{"city_id":20,"name":"台東縣","zipcode":"961","zip":"成功","primaryKey":"961","primaryKeySet":true},{"city_id":20,"name":"台東縣","zipcode":"962","zip":"長濱","primaryKey":"962","primaryKeySet":true},{"city_id":20,"name":"台東縣","zipcode":"963","zip":"太麻里","primaryKey":"963","primaryKeySet":true},{"city_id":20,"name":"台東縣","zipcode":"964","zip":"金峰","primaryKey":"964","primaryKeySet":true},{"city_id":20,"name":"台東縣","zipcode":"965","zip":"大武","primaryKey":"965","primaryKeySet":true},{"city_id":20,"name":"台東縣","zipcode":"966","zip":"達仁","primaryKey":"966","primaryKeySet":true},{"city_id":21,"name":"花蓮縣","zipcode":"970","zip":"花蓮","primaryKey":"970","primaryKeySet":true},{"city_id":21,"name":"花蓮縣","zipcode":"971","zip":"新城","primaryKey":"971","primaryKeySet":true},{"city_id":21,"name":"花蓮縣","zipcode":"972","zip":"秀林","primaryKey":"972","primaryKeySet":true},{"city_id":21,"name":"花蓮縣","zipcode":"973","zip":"吉安","primaryKey":"973","primaryKeySet":true},{"city_id":21,"name":"花蓮縣","zipcode":"974","zip":"壽豐","primaryKey":"974","primaryKeySet":true},{"city_id":21,"name":"花蓮縣","zipcode":"975","zip":"鳳林","primaryKey":"975","primaryKeySet":true},{"city_id":21,"name":"花蓮縣","zipcode":"976","zip":"光復","primaryKey":"976","primaryKeySet":true},{"city_id":21,"name":"花蓮縣","zipcode":"977","zip":"豐濱","primaryKey":"977","primaryKeySet":true},{"city_id":21,"name":"花蓮縣","zipcode":"978","zip":"瑞穗","primaryKey":"978","primaryKeySet":true},{"city_id":21,"name":"花蓮縣","zipcode":"979","zip":"萬榮","primaryKey":"979","primaryKeySet":true},{"city_id":21,"name":"花蓮縣","zipcode":"981","zip":"玉里","primaryKey":"981","primaryKeySet":true},{"city_id":21,"name":"花蓮縣","zipcode":"982","zip":"卓溪","primaryKey":"982","primaryKeySet":true},{"city_id":21,"name":"花蓮縣","zipcode":"983","zip":"富里","primaryKey":"983","primaryKeySet":true},{"city_id":22,"name":"宜蘭縣","zipcode":"260","zip":"宜蘭","primaryKey":"260","primaryKeySet":true},{"city_id":22,"name":"宜蘭縣","zipcode":"261","zip":"頭城","primaryKey":"261","primaryKeySet":true},{"city_id":22,"name":"宜蘭縣","zipcode":"262","zip":"礁溪","primaryKey":"262","primaryKeySet":true},{"city_id":22,"name":"宜蘭縣","zipcode":"263","zip":"壯圍","primaryKey":"263","primaryKeySet":true},{"city_id":22,"name":"宜蘭縣","zipcode":"264","zip":"員山","primaryKey":"264","primaryKeySet":true},{"city_id":22,"name":"宜蘭縣","zipcode":"265","zip":"羅東","primaryKey":"265","primaryKeySet":true},{"city_id":22,"name":"宜蘭縣","zipcode":"266","zip":"三星","primaryKey":"266","primaryKeySet":true},{"city_id":22,"name":"宜蘭縣","zipcode":"267","zip":"大同","primaryKey":"267","primaryKeySet":true},{"city_id":22,"name":"宜蘭縣","zipcode":"268","zip":"五結","primaryKey":"268","primaryKeySet":true},{"city_id":22,"name":"宜蘭縣","zipcode":"269","zip":"冬山","primaryKey":"269","primaryKeySet":true},{"city_id":22,"name":"宜蘭縣","zipcode":"270","zip":"蘇澳","primaryKey":"270","primaryKeySet":true},{"city_id":22,"name":"宜蘭縣","zipcode":"272","zip":"南澳","primaryKey":"272","primaryKeySet":true},{"city_id":23,"name":"澎湖縣","zipcode":"880","zip":"馬公","primaryKey":"880","primaryKeySet":true},{"city_id":23,"name":"澎湖縣","zipcode":"881","zip":"西嶼","primaryKey":"881","primaryKeySet":true},{"city_id":23,"name":"澎湖縣","zipcode":"882","zip":"望安","primaryKey":"882","primaryKeySet":true},{"city_id":23,"name":"澎湖縣","zipcode":"883","zip":"七美","primaryKey":"883","primaryKeySet":true},{"city_id":23,"name":"澎湖縣","zipcode":"884","zip":"白沙","primaryKey":"884","primaryKeySet":true},{"city_id":23,"name":"澎湖縣","zipcode":"885","zip":"湖西","primaryKey":"885","primaryKeySet":true},{"city_id":24,"name":"金門縣","zipcode":"890","zip":"金沙","primaryKey":"890","primaryKeySet":true},{"city_id":24,"name":"金門縣","zipcode":"891","zip":"金湖","primaryKey":"891","primaryKeySet":true},{"city_id":24,"name":"金門縣","zipcode":"892","zip":"金寧","primaryKey":"892","primaryKeySet":true},{"city_id":24,"name":"金門縣","zipcode":"893","zip":"金城","primaryKey":"893","primaryKeySet":true},{"city_id":24,"name":"金門縣","zipcode":"894","zip":"烈嶼","primaryKey":"894","primaryKeySet":true},{"city_id":24,"name":"金門縣","zipcode":"896","zip":"烏坵","primaryKey":"896","primaryKeySet":true},{"city_id":25,"name":"連江縣","zipcode":"209","zip":"南竿","primaryKey":"209","primaryKeySet":true},{"city_id":25,"name":"連江縣","zipcode":"210","zip":"北竿","primaryKey":"210","primaryKeySet":true},{"city_id":25,"name":"連江縣","zipcode":"211","zip":"莒光","primaryKey":"211","primaryKeySet":true},{"city_id":25,"name":"連江縣","zipcode":"212","zip":"東引","primaryKey":"212","primaryKeySet":true},{"city_id":26,"name":"南海諸島","zipcode":"817","zip":"東沙","primaryKey":"817","primaryKeySet":true},{"city_id":26,"name":"南海諸島","zipcode":"819","zip":"南沙","primaryKey":"819","primaryKeySet":true},{"city_id":27,"name":"釣魚台列嶼","zipcode":"290","zip":"釣魚台列嶼","primaryKey":"290","primaryKeySet":true}]}
